{"type": "FeatureCollection", "features": [ {"type": "Feature", "properties": {"norad_id": 39620, "name": "COSMOS 2492 (754)", "group": "gnss", "lat": -11.540794717260873, "lon": 145.37592996622985, "alt_km": 19149.786310539013, "timestamp": "2025-12-19T20:43:00.327988+00:00", "meta": {"OBJECT_NAME": "COSMOS 2492 (754)", "OBJECT_ID": "2014-012A", "EPOCH": "2025-12-18T04:53:42.056736", "MEAN_MOTION": 2.13103354, "ECCENTRICITY": 0.0014217, "INCLINATION": 65.4043, "RA_OF_ASC_NODE": 320.0846, "ARG_OF_PERICENTER": 312.4931, "MEAN_ANOMALY": 47.3782, "EPHEMERIS_TYPE": 0, "CLASSIFICATION_TYPE": "U", "NORAD_CAT_ID": 39620, "ELEMENT_SET_NO": 999, "REV_AT_EPOCH": 9138, "BSTAR": 0, "MEAN_MOTION_DOT": -6.4e-07, "MEAN_MOTION_DDOT": 0}, "tle": {"line1": "1 39620U 14012A   25352.20395899 -.00000064  00000+0  00000+0 0  9999", "line2": "2 39620  65.4043 320.0846 0014217 312.4931  47.3782  2.13103354 91389"}}, "geometry": {"type": "Point", "coordinates": [145.37592996622985, -11.540794717260873]}}, {"type": "Feature", "properties": {"norad_id": 39635, "name": "IRNSS-1B", "group": "gnss", "lat": -14.62437137693618, "lon": 91.29774027056918, "alt_km": 35726.62038724523, "timestamp": "2025-12-19T20:43:00.328002+00:00", "meta": {"OBJECT_NAME": "IRNSS-1B", "OBJECT_ID": "2014-017A", "EPOCH": "2025-12-18T18:41:36.288672", "MEAN_MOTION": 1.00270486, "ECCENTRICITY": 0.00188687, "INCLINATION": 29.2555, "RA_OF_ASC_NODE": 243.5019, "ARG_OF_PERICENTER": 250.2597, "MEAN_ANOMALY": 289.6629, "EPHEMERIS_TYPE": 0, "CLASSIFICATION_TYPE": "U", "NORAD_CAT_ID": 39635, "ELEMENT_SET_NO": 999, "REV_AT_EPOCH": 4298, "BSTAR": 0, "MEAN_MOTION_DOT": 1.5e-06, "MEAN_MOTION_DDOT": 0}, "tle": {"line1": "1 39635U 14017A   25352.77889223  .00000150  00000+0  00000+0 0  9996", "line2": "2 39635  29.2555 243.5019 0018868 250.2597 289.6629  1.00270486 42984"}}, "geometry": {"type": "Point", "coordinates": [91.29774027056918, -14.62437137693618]}}, {"type": "Feature", "properties": {"norad_id": 39727, "name": "LUCH 5V (SDCM/PRN 141)", "group": "gnss", "lat": 4.17997006682977, "lon": 134.00334236485497, "alt_km": 35802.528415196684, "timestamp": "2025-12-19T20:43:00.328014+00:00", "meta": {"OBJECT_NAME": "LUCH 5V (SDCM/PRN 141)", "OBJECT_ID": "2014-023A", "EPOCH": "2025-12-19T06:51:57.191904", "MEAN_MOTION": 1.00267301, "ECCENTRICITY": 0.00043033, "INCLINATION": 4.685, "RA_OF_ASC_NODE": 71.4791, "ARG_OF_PERICENTER": 212.0659, "MEAN_ANOMALY": 2.2442, "EPHEMERIS_TYPE": 0, "CLASSIFICATION_TYPE": "U", "NORAD_CAT_ID": 39727, "ELEMENT_SET_NO": 999, "REV_AT_EPOCH": 4255, "BSTAR": 0, "MEAN_MOTION_DOT": -2.47e-06, "MEAN_MOTION_DDOT": 0}, "tle": {"line1": "1 39727U 14023A   25353.28607861 -.00000247  00000+0  00000+0 0  9996", "line2": "2 39727   4.6850  71.4791 0004303 212.0659   2.2442  1.00267301 42557"}}, "geometry": {"type": "Point", "coordinates": [134.00334236485497, 4.17997006682977]}}, {"type": "Feature", "properties": {"norad_id": 39741, "name": "GPS BIIF-6  (PRN 06)", "group": "gnss", "lat": -55.17191612146487, "lon": -93.12857221461397, "alt_km": 20106.40452591882, "timestamp": "2025-12-19T20:43:00.328026+00:00", "meta": {"OBJECT_NAME": "GPS BIIF-6  (PRN 06)", "OBJECT_ID": "2014-026A", "EPOCH": "2025-12-18T23:24:45.525888", "MEAN_MOTION": 2.00561009, "ECCENTRICITY": 0.00393411, "INCLINATION": 56.5812, "RA_OF_ASC_NODE": 338.5339, "ARG_OF_PERICENTER": 319.0443, "MEAN_ANOMALY": 40.6665, "EPHEMERIS_TYPE": 0, "CLASSIFICATION_TYPE": "U", "NORAD_CAT_ID": 39741, "ELEMENT_SET_NO": 999, "REV_AT_EPOCH": 8492, "BSTAR": 0, "MEAN_MOTION_DOT": -8.1e-07, "MEAN_MOTION_DDOT": 0}, "tle": {"line1": "1 39741U 14026A   25352.97552692 -.00000081  00000+0  00000+0 0  9997", "line2": "2 39741  56.5812 338.5339 0039341 319.0443  40.6665  2.00561009 84924"}}, "geometry": {"type": "Point", "coordinates": [-93.12857221461397, -55.17191612146487]}}, {"type": "Feature", "properties": {"norad_id": 40001, "name": "COSMOS 2500 (755)", "group": "gnss", "lat": 52.49282946769246, "lon": -3.4779840078930278, "alt_km": 19142.723967756283, "timestamp": "2025-12-19T20:43:00.328051+00:00", "meta": {"OBJECT_NAME": "COSMOS 2500 (755)", "OBJECT_ID": "2014-032A", "EPOCH": "2025-12-17T21:45:50.523264", "MEAN_MOTION": 2.13106065, "ECCENTRICITY": 0.00080575, "INCLINATION": 65.3403, "RA_OF_ASC_NODE": 319.8565, "ARG_OF_PERICENTER": 219.1485, "MEAN_ANOMALY": 140.7851, "EPHEMERIS_TYPE": 0, "CLASSIFICATION_TYPE": "U", "NORAD_CAT_ID": 40001, "ELEMENT_SET_NO": 999, "REV_AT_EPOCH": 8959, "BSTAR": 0, "MEAN_MOTION_DOT": -6.5e-07, "MEAN_MOTION_DDOT": 0}, "tle": {"line1": "1 40001U 14032A   25351.90683476 -.00000065  00000+0  00000+0 0  9994", "line2": "2 40001  65.3403 319.8565 0008057 219.1485 140.7851  2.13106065 89596"}}, "geometry": {"type": "Point", "coordinates": [-3.4779840078930278, 52.49282946769246]}}, {"type": "Feature", "properties": {"norad_id": 40105, "name": "GPS BIIF-7  (PRN 09)", "group": "gnss", "lat": -30.9918945369344, "lon": -59.764103608486344, "alt_km": 20198.032857010792, "timestamp": "2025-12-19T20:43:00.328065+00:00", "meta": {"OBJECT_NAME": "GPS BIIF-7  (PRN 09)", "OBJECT_ID": "2014-045A", "EPOCH": "2025-12-18T01:34:21.644256", "MEAN_MOTION": 2.00572958, "ECCENTRICITY": 0.00325491, "INCLINATION": 55.2322, "RA_OF_ASC_NODE": 95.6864, "ARG_OF_PERICENTER": 120.0469, "MEAN_ANOMALY": 240.2601, "EPHEMERIS_TYPE": 0, "CLASSIFICATION_TYPE": "U", "NORAD_CAT_ID": 40105, "ELEMENT_SET_NO": 999, "REV_AT_EPOCH": 8244, "BSTAR": 0, "MEAN_MOTION_DOT": -3.8e-07, "MEAN_MOTION_DDOT": 0}, "tle": {"line1": "1 40105U 14045A   25352.06552829 -.00000038  00000+0  00000+0 0  9998", "line2": "2 40105  55.2322  95.6864 0032549 120.0469 240.2601  2.00572958 82445"}}, "geometry": {"type": "Point", "coordinates": [-59.764103608486344, -30.9918945369344]}}, {"type": "Feature", "properties": {"norad_id": 40128, "name": "GSAT0201 (GALILEO 5)", "group": "gnss", "lat": -25.735672363098857, "lon": -103.92586005244712, "alt_km": 25507.903185327174, "timestamp": "2025-12-19T20:43:00.328077+00:00", "meta": {"OBJECT_NAME": "GSAT0201 (GALILEO 5)", "OBJECT_ID": "2014-050A", "EPOCH": "2025-12-14T00:08:14.916480", "MEAN_MOTION": 1.85519648, "ECCENTRICITY": 0.16480052, "INCLINATION": 49.0753, "RA_OF_ASC_NODE": 281.012, "ARG_OF_PERICENTER": 172.3262, "MEAN_ANOMALY": 190.5827, "EPHEMERIS_TYPE": 0, "CLASSIFICATION_TYPE": "U", "NORAD_CAT_ID": 40128, "ELEMENT_SET_NO": 999, "REV_AT_EPOCH": 7488, "BSTAR": 0, "MEAN_MOTION_DOT": -9.9e-07, "MEAN_MOTION_DDOT": 0}, "tle": {"line1": "1 40128U 14050A   25348.00572820 -.00000099  00000+0  00000+0 0  9998", "line2": "2 40128  49.0753 281.0120 1648005 172.3262 190.5827  1.85519648 74882"}}, "geometry": {"type": "Point", "coordinates": [-103.92586005244712, -25.735672363098857]}}, {"type": "Feature", "properties": {"norad_id": 40129, "name": "GSAT0202 (GALILEO 6)", "group": "gnss", "lat": 33.889242388798635, "lon": 64.27921653303044, "alt_km": 17805.712627908266, "timestamp": "2025-12-19T20:43:00.328088+00:00", "meta": {"OBJECT_NAME": "GSAT0202 (GALILEO 6)", "OBJECT_ID": "2014-050B", "EPOCH": "2025-12-18T13:46:22.484640", "MEAN_MOTION": 1.85520466, "ECCENTRICITY": 0.16491259, "INCLINATION": 49.0858, "RA_OF_ASC_NODE": 279.9095, "ARG_OF_PERICENTER": 173.2442, "MEAN_ANOMALY": 189.3393, "EPHEMERIS_TYPE": 0, "CLASSIFICATION_TYPE": "U", "NORAD_CAT_ID": 40129, "ELEMENT_SET_NO": 999, "REV_AT_EPOCH": 7713, "BSTAR": 0, "MEAN_MOTION_DOT": -5.9e-07, "MEAN_MOTION_DDOT": 0}, "tle": {"line1": "1 40129U 14050B   25352.57387135 -.00000059  00000+0  00000+0 0  9995", "line2": "2 40129  49.0858 279.9095 1649125 173.2442 189.3393  1.85520466 77135"}}, "geometry": {"type": "Point", "coordinates": [64.27921653303044, 33.889242388798635]}}, {"type": "Feature", "properties": {"norad_id": 40269, "name": "IRNSS-1C", "group": "gnss", "lat": 3.056050580234586, "lon": 122.39540223450472, "alt_km": 35717.85264427635, "timestamp": "2025-12-19T20:43:00.328100+00:00", "meta": {"OBJECT_NAME": "IRNSS-1C", "OBJECT_ID": "2014-061A", "EPOCH": "2025-12-18T08:33:07.675776", "MEAN_MOTION": 1.00274321, "ECCENTRICITY": 0.00180573, "INCLINATION": 6.0557, "RA_OF_ASC_NODE": 92.5101, "ARG_OF_PERICENTER": 1.4373, "MEAN_ANOMALY": 204.5224, "EPHEMERIS_TYPE": 0, "CLASSIFICATION_TYPE": "U", "NORAD_CAT_ID": 40269, "ELEMENT_SET_NO": 999, "REV_AT_EPOCH": 4087, "BSTAR": 0, "MEAN_MOTION_DOT": -1.42e-06, "MEAN_MOTION_DDOT": 0}, "tle": {"line1": "1 40269U 14061A   25352.35633884 -.00000142  00000+0  00000+0 0  9996", "line2": "2 40269   6.0557  92.5101 0018057   1.4373 204.5224  1.00274321 40871"}}, "geometry": {"type": "Point", "coordinates": [122.39540223450472, 3.056050580234586]}}, {"type": "Feature", "properties": {"norad_id": 40294, "name": "GPS BIIF-8  (PRN 03)", "group": "gnss", "lat": -42.59485078894303, "lon": 1.0109766911633289, "alt_km": 20274.436032593192, "timestamp": "2025-12-19T20:43:00.328115+00:00", "meta": {"OBJECT_NAME": "GPS BIIF-8  (PRN 03)", "OBJECT_ID": "2014-068A", "EPOCH": "2025-12-18T10:36:49.514400", "MEAN_MOTION": 2.0056529, "ECCENTRICITY": 0.00608014, "INCLINATION": 56.862, "RA_OF_ASC_NODE": 37.9254, "ARG_OF_PERICENTER": 69.0723, "MEAN_ANOMALY": 291.6423, "EPHEMERIS_TYPE": 0, "CLASSIFICATION_TYPE": "U", "NORAD_CAT_ID": 40294, "ELEMENT_SET_NO": 999, "REV_AT_EPOCH": 8158, "BSTAR": 0, "MEAN_MOTION_DOT": -6.7e-07, "MEAN_MOTION_DDOT": 0}, "tle": {"line1": "1 40294U 14068A   25352.44223975 -.00000067  00000+0  00000+0 0  9993", "line2": "2 40294  56.8620  37.9254 0060801  69.0723 291.6423  2.00565290 81588"}}, "geometry": {"type": "Point", "coordinates": [1.0109766911633289, -42.59485078894303]}}]}